P/2011 S1 (Gibbs),e,2.6862,218.8494,192.4422,8.583492,0.0391930,0.20110551,108.6567,03/16.0/2022,2000,g  8.0,4.0
# From MPC 79022
P/2011 UA134 (Spacewatch-PANSTARRS),e,10.4405,40.4002,32.4062,5.608526,0.0742046,0.62955354,280.6483,03/16.0/2022,2000,g 17.5,4.0
# From MPC 77406
P/2011 V1 (Boattini),e,7.3750,46.8023,269.3456,3.856472,0.1301424,0.55037058,164.0643,03/16.0/2022,2000,g 15.5,4.0
# From MPC 82718
P/2011 W1 (PANSTARRS),e,3.7186,161.7864,282.7536,4.663595,0.0978640,0.28767183,3.5493,03/16.0/2022,2000,g 11.5,4.0
# From MPC 79342
P/2011 Y2 (Boattini),e,6.3742,309.3494,131.9215,6.239059,0.0632449,0.70987030,231.7341,03/16.0/2022,2000,g 15.0,4.0
# From MPC 94669
P/2012 B1 (PANSTARRS),e,7.6108,36.2155,162.4685,6.530851,0.0590540,0.40901974,187.0178,03/16.0/2022,2000,g  9.0,4.0
# From MPC 78590
P/2012 C3 (PANSTARRS),e,9.0920,135.3677,344.9542,9.748681,0.0323806,0.63011148,359.9758,10/06.0/2011,2000,g 13.0,4.0
# From MPC 84931
P/2012 F2 (PANSTARRS),e,14.7074,227.0079,33.3184,6.333126,0.0618411,0.54165255,201.6640,03/16.0/2022,2000,g 12.0,4.0
# From MPEC 2022-ED3
P/2012 G1 (PANSTARRS),e,12.1754,283.2800,266.0723,4.164516,0.1159731,0.32971939,61.6680,03/16.0/2022,2000,g 15.0,4.0
# From MPC 80898
P/2012 K3 (Gibbs),e,13.1930,125.8141,172.2257,3.627109,0.1426800,0.42301484,134.3513,03/16.0/2022,2000,g 15.0,4.0
# From MPC 88326
P/2012 NJ (La Sagra),e,84.6359,315.5597,338.3700,8.464020,0.0400257,0.84696470,142.5524,03/16.0/2022,2000,g 14.5,4.0
# From MPC 81470
P/2012 O1 (McNaught),e,7.4291,91.9574,238.2830,3.541251,0.1479003,0.59450405,164.0551,03/16.0/2022,2000,g 17.5,4.0
# From MPC 80899
P/2012 O2 (McNaught),e,24.4795,120.6837,183.4614,3.625166,0.1427948,0.53241947,149.2106,03/16.0/2022,2000,g 17.0,4.0
# From MPC 82720
P/2012 O3 (McNaught),e,16.6160,336.4137,344.7542,4.572430,0.1008053,0.64702651,352.4625,03/16.0/2022,2000,g 16.5,4.0
# From MPC 82320
P/2012 T2 (PANSTARRS),e,12.5630,73.7165,310.5698,5.731812,0.0718234,0.16187496,233.1852,03/16.0/2022,2000,g 10.0,4.0
# From MPC 80900
P/2012 T3 (PANSTARRS),e,9.5634,114.3913,195.5093,6.151194,0.0646048,0.61707142,232.7046,03/16.0/2022,2000,g 15.0,4.0
# From MPC 82720
P/2012 U2 (PANSTARRS),e,10.7579,185.3148,228.2451,7.135669,0.0517073,0.49920106,176.3855,03/16.0/2022,2000,g 12.5,4.0
# From MPC 84024
P/2012 US27 (Siding Spring),e,39.3583,49.1925,0.8067,5.165977,0.0839412,0.64797874,280.2162,03/16.0/2022,2000,g 13.5,4.0
# From MPC 82721
P/2012 WA34 (Lemmon-PANSTARRS),e,6.0779,93.6777,356.0903,4.698331,0.0967807,0.34543472,313.7662,03/16.0/2022,2000,g 13.5,4.0
# From MPC 82721
P/2013 AL76 (Catalina),e,144.8558,145.9949,27.0614,6.497445,0.0595100,0.68630379,201.6265,03/16.0/2022,2000,g 16.0,4.0
# From MPC 91612
P/2013 G1 (Kowalski),e,5.4611,221.3472,51.5072,6.893609,0.0544545,0.51204650,164.2506,03/16.0/2022,2000,g 11.0,4.0
# From MPC 84025
P/2013 G4 (PANSTARRS),e,5.9163,339.6383,214.6514,4.440339,0.1053368,0.40944034,349.9522,03/16.0/2022,2000,g 15.0,4.0
# From MPC 91613
P/2013 J2 (McNaught),e,15.5222,289.3882,37.8094,6.222819,0.0634926,0.65760603,198.0804,03/16.0/2022,2000,g 13.0,4.0
# From MPC 86229
P/2013 N3 (PANSTARRS),e,2.1740,17.4637,323.9390,7.392928,0.0490320,0.59328263,144.5703,03/16.0/2022,2000,g 13.0,4.0
# From MPC 85834
P/2013 N5 (PANSTARRS),e,23.4540,187.1561,176.9180,6.797592,0.0556124,0.73241496,176.5952,03/16.0/2022,2000,g 17.0,4.0
# From MPC 85834
P/2013 P1 (PANSTARRS),e,18.7252,160.5901,138.2169,8.576940,0.0392379,0.60534740,129.5400,03/16.0/2022,2000,g 12.0,4.0
# From MPC 94671
P/2013 R3 (Catalina-PANSTARRS),e,0.8650,341.9933,11.2222,3.033022,0.1865910,0.27545781,222.8409,03/16.0/2022,2000,g 14.0,4.0
# From unp
P/2013 R3-A (Catalina-PANSTARRS),e,0.8644,341.9601,11.2612,3.032880,0.1866041,0.27542742,222.8794,03/16.0/2022,2000,g  9.0,4.0
# From MPEC 2015-M77
P/2013 R3-B (Catalina-PANSTARRS),e,0.8657,342.0160,11.1960,3.033099,0.1865839,0.27547275,222.8203,03/16.0/2022,2000,g  9.0,4.0
# From MPC 85835
P/2013 T1 (PANSTARRS),e,24.2987,10.0804,346.1321,5.858556,0.0695053,0.62419244,218.5755,03/16.0/2022,2000,g 16.5,4.0
# From MPC 86643
P/2013 T2 (Schwartz),e,9.4575,0.8010,345.5507,3.491121,0.1510973,0.50121618,126.3474,03/16.0/2022,2000,g 16.0,4.0
# From MPC 91613
P/2013 W1 (PANSTARRS),e,4.6957,117.8446,1.2564,3.488687,0.1512555,0.59272524,83.4580,03/16.0/2022,2000,g 17.5,4.0
# From MPC101095
P/2013 YG46 (Spacewatch),e,7.8569,48.8381,242.5734,3.275039,0.1662951,0.45478717,310.7383,03/16.0/2022,2000,g 10.0,4.0
# From MPC 89728
P/2014 A2 (Hill),e,24.5371,106.6299,356.1660,5.927466,0.0682968,0.64536343,210.2259,03/16.0/2022,2000,g 15.0,4.0
# From MPC 92981
P/2014 A3 (PANSTARRS),e,13.7084,229.9859,213.9056,4.613801,0.0994525,0.24718025,320.1150,03/16.0/2022,2000,g 12.0,4.0
# From MPEC 2022-ED3
C/2014 B1 (Schwartz),e,28.4115,161.4224,345.6678,4332,0.0000035,0.99779646,0.0000,09/06.7580/2017,2000,g  4.0,4.0
# From MPC102095
P/2014 C1 (TOTAS),e,2.6918,167.7921,23.8938,3.035534,0.1863595,0.44965741,198.7739,03/16.0/2022,2000,g 15.5,4.0
# From MPC 94280
C/2014 F3 (Sheppard-Trujillo),e,6.5750,326.6621,3.9430,14.94893,0.0170525,0.61920240,5.0818,03/16.0/2022,2000,g  6.0,4.0
# From MPC 98560
P/2014 L2 (NEOWISE),e,5.1997,149.3472,182.6906,6.304303,0.0622656,0.64819507,174.0262,03/16.0/2022,2000,g 12.0,4.0
# From MPC 90769
P/2014 L3 (Hill),e,6.2733,115.4817,178.6874,8.174287,0.0421725,0.77330090,118.6980,03/16.0/2022,2000,g 16.0,4.0
# From MPC 91614
P/2014 M4 (PANSTARRS),e,3.3395,263.2193,147.9866,5.870863,0.0692869,0.59498677,182.6432,03/16.0/2022,2000,g 15.0,4.0
# From MPC103844
P/2014 MG4 (Spacewatch-PANSTARRS),e,9.3694,311.7341,299.0776,5.012724,0.0878200,0.25919086,280.3959,03/16.0/2022,2000,g  9.5,4.0
# From MPC 98560
P/2014 O3 (PANSTARRS),e,7.8009,87.6444,204.7262,7.571311,0.0473094,0.38530034,136.5731,03/16.0/2022,2000,g 10.5,4.0
# From MPEC 2022-C56
C/2014 OG392 (PANSTARRS),e,9.0328,145.7950,254.1458,12.24138,0.0230122,0.18558993,2.4145,03/16.0/2022,2000,g  6.0,4.0
# From MPC 91615
P/2014 R5 (Lemmon-PANSTARRS),e,1.0883,126.5599,213.7337,4.057602,0.1205868,0.41396328,341.1952,03/16.0/2022,2000,g 15.0,4.0
# From MPC104790
C/2014 S2 (PANSTARRS),e,64.5698,8.2134,87.1994,169.2402,0.0004477,0.98774931,0.0000,12/09.9346/2015,2000,g 10.0,4.0
# From MPC 91616
P/2014 U4 (PANSTARRS),e,6.4291,11.8866,347.7840,3.507294,0.1500534,0.46493119,59.3341,03/16.0/2022,2000,g 18.0,4.0
# From MPEC 2022-CN4
C/2014 UN271 (Bernardinelli-Bernstein),e,95.4346,189.9075,326.3217,23140,0.0000003,0.99952728,0.0000,01/25.0506/2031,2000,g  2.5,3.2
# From MPC 95211
P/2014 V1 (PANSTARRS),e,22.5269,166.2003,177.6186,5.480066,0.0768290,0.53449449,200.2270,03/16.0/2022,2000,g 14.0,4.0
# From MPC 93586
P/2014 W1 (PANSTARRS),e,8.8371,246.2419,152.1734,4.464005,0.1045002,0.38902323,292.7493,03/16.0/2022,2000,g 15.5,4.0
# From MPC105542
P/2014 W4 (PANSTARRS),e,15.2800,33.3754,67.6766,6.592716,0.0582247,0.35263498,132.0740,03/16.0/2022,2000,g 11.0,4.0
# From MPC 94281
P/2014 X1 (Elenin),e,26.0291,61.5367,33.9043,6.206906,0.0637370,0.70902535,167.7359,03/16.0/2022,2000,g 15.0,4.0
# From MPC 92275
P/2015 A3 (PANSTARRS),e,172.5357,277.2501,249.3587,7.812054,0.0451394,0.85068932,116.6381,03/16.0/2022,2000,g 20.0,4.0
# From MPC 99270
P/2015 B1 (PANSTARRS),e,18.0435,352.9545,188.9025,9.495140,0.0336862,0.36706933,80.0704,03/16.0/2022,2000,g  8.5,4.0
# From MPC109141
P/2015 B4 (Lemmon-PANSTARRS),e,1.7613,266.0374,227.3556,8.523117,0.0396101,0.56016313,102.9274,03/16.0/2022,2000,g 11.0,4.0
# From MPC101096
P/2015 C1 (TOTAS-Gibbs),e,13.9058,348.8016,178.1924,6.578647,0.0584116,0.56046186,147.0640,03/16.0/2022,2000,g 12.5,4.0
# From MPC109141
P/2015 D5 (Kowalski),e,20.5186,74.0640,39.7477,8.960430,0.0367461,0.48927163,106.8196,03/16.0/2022,2000,g  9.0,4.0
# From MPC 96866
P/2015 D6 (Lemmon-PANSTARRS),e,20.2023,45.9175,125.0880,7.139594,0.0516647,0.36133038,126.6938,03/16.0/2022,2000,g 10.5,4.0
# From MPEC 2021-P47
C/2015 ER61 (PANSTARRS),e,6.3228,235.0522,68.4973,533.3848,0.0000800,0.99803606,0.0000,05/10.3816/2017,2000,g 11.0,2.0
# From MPEC 2018-BF5
C/2015 E61-B (PANSTARRS),e,6.3243,235.0873,68.5868,1761,0.0000133,0.99940426,0.0000,05/10.3598/2017,2000,g 13.5,2.0
# From MPEC 2021-P47
P/2015 HG16 (PANSTARRS),e,18.7833,58.0169,47.7222,4.758063,0.0949639,0.35240631,269.6597,03/16.0/2022,2000,g 12.5,4.0
# From MPC 95213
P/2015 K5 (PANSTARRS),e,39.9448,134.1876,106.3531,6.724456,0.0565221,0.55250465,140.0602,03/16.0/2022,2000,g 13.5,4.0
# From MPC107684
P/2015 M2 (PANSTARRS),e,3.9709,86.5861,225.7980,7.237396,0.0506210,0.18049629,120.2833,03/16.0/2022,2000,g  8.5,4.0
# From MPEC 2021-P47
C/2015 O1 (PANSTARRS),h,02/20.0471/2018,127.2053,299.8437,89.5924,1.001527,3.725133,2000,6.5,4.0
# From MPC 99819
P/2015 P4 (PANSTARRS),e,8.7173,104.7214,280.6063,6.047501,0.0662735,0.58538956,148.7906,03/16.0/2022,2000,g 14.0,4.0
# From MPC102952
P/2015 PD229 (Cameron-ISON),e,2.0260,342.6396,352.5918,7.188069,0.0511429,0.32800594,122.8754,03/16.0/2022,2000,g 11.5,2.0
# From MPC 96867
P/2015 Q2 (Pimentel),e,146.5293,228.4871,244.5869,7.351971,0.0494423,0.75055965,117.8118,03/16.0/2022,2000,g 15.5,4.0
# From MPC 98562
P/2015 R1 (PANSTARRS),e,22.6900,48.3636,300.5193,5.880195,0.0691220,0.63437656,169.4245,03/16.0/2022,2000,g 14.0,4.0
# From MPC 95734
P/2015 R2 (PANSTARRS),e,15.4850,168.5969,149.8192,4.486769,0.1037059,0.45290515,255.7626,03/16.0/2022,2000,g 14.5,4.0
# From MPC117068
C/2015 T2 (PANSTARRS),e,124.5638,50.9871,30.6696,1754,0.0000134,0.99604240,0.0000,05/18.2202/2017,2000,g  8.0,4.0
# From MPC 96280
P/2015 T3 (PANSTARRS),e,13.0937,120.5019,178.6330,4.326181,0.1095335,0.50818108,359.9227,12/21.0/2014,2000,g 14.0,4.0
# From MPC102953
P/2015 TO19 (Lemmon-PANSTARRS),e,6.4998,321.6434,89.1277,4.553761,0.1014259,0.35886015,223.2130,03/16.0/2022,2000,g 14.0,4.0
# From MPC110080
P/2015 TP200 (LINEAR),e,8.7802,7.0167,82.4900,7.268358,0.0502979,0.53558154,98.8548,03/16.0/2022,2000,g 11.0,4.0
# From MPC115881
C/2015 V1 (PANSTARRS),e,139.2279,197.1534,179.6506,2093,0.0000103,0.99795714,0.0000,12/16.4750/2017,2000,g  6.5,4.0
